{"type": "FeatureCollection", "features": [ {"type": "Feature", "properties": {"norad_id": 34609, "name": "COSMOS 2251 DEB", "group": "cosmos-2251-debris", "lat": 4.206249199770885, "lon": 117.87020423220066, "alt_km": 728.6621530511138, "timestamp": "2025-12-07T07:31:36.692686+00:00", "meta": {"OBJECT_NAME": "COSMOS 2251 DEB", "OBJECT_ID": "1993-036WE", "EPOCH": "2025-12-06T03:37:03.647424", "MEAN_MOTION": 14.21756721, "ECCENTRICITY": 0.01447486, "INCLINATION": 73.7331, "RA_OF_ASC_NODE": 118.7641, "ARG_OF_PERICENTER": 339.3124, "MEAN_ANOMALY": 194.7108, "EPHEMERIS_TYPE": 0, "CLASSIFICATION_TYPE": "U", "NORAD_CAT_ID": 34609, "ELEMENT_SET_NO": 999, "REV_AT_EPOCH": 86538, "BSTAR": 0.001219601, "MEAN_MOTION_DOT": 2.957e-05, "MEAN_MOTION_DDOT": 0}, "tle": {"line1": "1 34609U 93036WE  25340.15073666  .00002957  00000+0  12196-2 0  9994", "line2": "2 34609  73.7331 118.7641 0144748 339.3124 194.7108 14.21756721865385"}}, "geometry": {"type": "Point", "coordinates": [117.87020423220066, 4.206249199770885]}}, {"type": "Feature", "properties": {"norad_id": 34610, "name": "COSMOS 2251 DEB", "group": "cosmos-2251-debris", "lat": 71.64149859381314, "lon": 32.12434155379143, "alt_km": 786.8941353560222, "timestamp": "2025-12-07T07:31:36.692696+00:00", "meta": {"OBJECT_NAME": "COSMOS 2251 DEB", "OBJECT_ID": "1993-036WF", "EPOCH": "2025-12-06T20:50:01.438944", "MEAN_MOTION": 14.06990697, "ECCENTRICITY": 0.0180128, "INCLINATION": 74.02, "RA_OF_ASC_NODE": 272.6151, "ARG_OF_PERICENTER": 44.495, "MEAN_ANOMALY": 317.0492, "EPHEMERIS_TYPE": 0, "CLASSIFICATION_TYPE": "U", "NORAD_CAT_ID": 34610, "ELEMENT_SET_NO": 999, "REV_AT_EPOCH": 85477, "BSTAR": 0.0036707766, "MEAN_MOTION_DOT": 7.084e-05, "MEAN_MOTION_DDOT": 0}, "tle": {"line1": "1 34610U 93036WF  25340.86807221  .00007084  00000+0  36708-2 0  9997", "line2": "2 34610  74.0200 272.6151 0180128  44.4950 317.0492 14.06990697854777"}}, "geometry": {"type": "Point", "coordinates": [32.12434155379143, 71.64149859381314]}}, {"type": "Feature", "properties": {"norad_id": 34611, "name": "COSMOS 2251 DEB", "group": "cosmos-2251-debris", "lat": 13.655897307252635, "lon": 115.44922321329337, "alt_km": 676.5657236937377, "timestamp": "2025-12-07T07:31:36.692706+00:00", "meta": {"OBJECT_NAME": "COSMOS 2251 DEB", "OBJECT_ID": "1993-036WG", "EPOCH": "2025-12-06T18:58:15.128832", "MEAN_MOTION": 14.69326166, "ECCENTRICITY": 0.0023306, "INCLINATION": 74.0534, "RA_OF_ASC_NODE": 112.4775, "ARG_OF_PERICENTER": 156.262, "MEAN_ANOMALY": 332.0347, "EPHEMERIS_TYPE": 0, "CLASSIFICATION_TYPE": "U", "NORAD_CAT_ID": 34611, "ELEMENT_SET_NO": 999, "REV_AT_EPOCH": 88303, "BSTAR": 0.0033592465, "MEAN_MOTION_DOT": 0.00019951, "MEAN_MOTION_DDOT": 0}, "tle": {"line1": "1 34611U 93036WG  25340.79045288  .00019951  00000+0  33592-2 0  9991", "line2": "2 34611  74.0534 112.4775 0023306 156.2620 332.0347 14.69326166883031"}}, "geometry": {"type": "Point", "coordinates": [115.44922321329337, 13.655897307252635]}}, {"type": "Feature", "properties": {"norad_id": 34613, "name": "COSMOS 2251 DEB", "group": "cosmos-2251-debris", "lat": -40.15082253916784, "lon": 122.44742411253068, "alt_km": 823.3889591077268, "timestamp": "2025-12-07T07:31:36.692716+00:00", "meta": {"OBJECT_NAME": "COSMOS 2251 DEB", "OBJECT_ID": "1993-036WJ", "EPOCH": "2025-12-06T14:29:13.487712", "MEAN_MOTION": 14.26378218, "ECCENTRICITY": 0.0110098, "INCLINATION": 73.9639, "RA_OF_ASC_NODE": 289.6943, "ARG_OF_PERICENTER": 123.1149, "MEAN_ANOMALY": 53.3522, "EPHEMERIS_TYPE": 0, "CLASSIFICATION_TYPE": "U", "NORAD_CAT_ID": 34613, "ELEMENT_SET_NO": 999, "REV_AT_EPOCH": 86375, "BSTAR": 0.0020383277, "MEAN_MOTION_DOT": 5.202e-05, "MEAN_MOTION_DDOT": 0}, "tle": {"line1": "1 34613U 93036WJ  25340.60362833  .00005202  00000+0  20383-2 0  9999", "line2": "2 34613  73.9639 289.6943 0110098 123.1149  53.3522 14.26378218863758"}}, "geometry": {"type": "Point", "coordinates": [122.44742411253068, -40.15082253916784]}}, {"type": "Feature", "properties": {"norad_id": 34614, "name": "COSMOS 2251 DEB", "group": "cosmos-2251-debris", "lat": -47.51543966631431, "lon": -24.76898275638898, "alt_km": 728.5261114250634, "timestamp": "2025-12-07T07:31:36.692726+00:00", "meta": {"OBJECT_NAME": "COSMOS 2251 DEB", "OBJECT_ID": "1993-036WK", "EPOCH": "2025-12-06T01:24:11.041632", "MEAN_MOTION": 14.17216648, "ECCENTRICITY": 0.01971679, "INCLINATION": 73.8748, "RA_OF_ASC_NODE": 355.9025, "ARG_OF_PERICENTER": 350.8037, "MEAN_ANOMALY": 39.1163, "EPHEMERIS_TYPE": 0, "CLASSIFICATION_TYPE": "U", "NORAD_CAT_ID": 34614, "ELEMENT_SET_NO": 999, "REV_AT_EPOCH": 84672, "BSTAR": 0.0078134929, "MEAN_MOTION_DOT": 0.00019106, "MEAN_MOTION_DDOT": 0}, "tle": {"line1": "1 34614U 93036WK  25340.05846113  .00019106  00000+0  78135-2 0  9993", "line2": "2 34614  73.8748 355.9025 0197167 350.8037  39.1163 14.17216648846723"}}, "geometry": {"type": "Point", "coordinates": [-24.76898275638898, -47.51543966631431]}}, {"type": "Feature", "properties": {"norad_id": 34615, "name": "COSMOS 2251 DEB", "group": "cosmos-2251-debris", "lat": 34.689766276693135, "lon": -45.7040344968981, "alt_km": 1359.2657934900608, "timestamp": "2025-12-07T07:31:36.692737+00:00", "meta": {"OBJECT_NAME": "COSMOS 2251 DEB", "OBJECT_ID": "1993-036WL", "EPOCH": "2025-12-06T09:02:40.664256", "MEAN_MOTION": 13.52199874, "ECCENTRICITY": 0.04018612, "INCLINATION": 74.0049, "RA_OF_ASC_NODE": 304.3467, "ARG_OF_PERICENTER": 212.9074, "MEAN_ANOMALY": 305.531, "EPHEMERIS_TYPE": 0, "CLASSIFICATION_TYPE": "U", "NORAD_CAT_ID": 34615, "ELEMENT_SET_NO": 999, "REV_AT_EPOCH": 82729, "BSTAR": 0.00029825034, "MEAN_MOTION_DOT": 3.04e-06, "MEAN_MOTION_DDOT": 0}, "tle": {"line1": "1 34615U 93036WL  25340.37685954  .00000304  00000+0  29825-3 0  9996", "line2": "2 34615  74.0049 304.3467 0401861 212.9074 305.5310 13.52199874827291"}}, "geometry": {"type": "Point", "coordinates": [-45.7040344968981, 34.689766276693135]}}, {"type": "Feature", "properties": {"norad_id": 34619, "name": "COSMOS 2251 DEB", "group": "cosmos-2251-debris", "lat": -74.03413658084672, "lon": 120.58372056498412, "alt_km": 631.2584064872572, "timestamp": "2025-12-07T07:31:36.692747+00:00", "meta": {"OBJECT_NAME": "COSMOS 2251 DEB", "OBJECT_ID": "1993-036WQ", "EPOCH": "2025-12-06T22:05:39.052032", "MEAN_MOTION": 14.64623272, "ECCENTRICITY": 0.00946432, "INCLINATION": 74.0443, "RA_OF_ASC_NODE": 211.121, "ARG_OF_PERICENTER": 307.3164, "MEAN_ANOMALY": 51.9405, "EPHEMERIS_TYPE": 0, "CLASSIFICATION_TYPE": "U", "NORAD_CAT_ID": 34619, "ELEMENT_SET_NO": 999, "REV_AT_EPOCH": 89213, "BSTAR": 0.0004116498, "MEAN_MOTION_DOT": 2.302e-05, "MEAN_MOTION_DDOT": 0}, "tle": {"line1": "1 34619U 93036WQ  25340.92059088  .00002302  00000+0  41165-3 0  9995", "line2": "2 34619  74.0443 211.1210 0094643 307.3164  51.9405 14.64623272892139"}}, "geometry": {"type": "Point", "coordinates": [120.58372056498412, -74.03413658084672]}}, {"type": "Feature", "properties": {"norad_id": 34620, "name": "COSMOS 2251 DEB", "group": "cosmos-2251-debris", "lat": 73.76788229814211, "lon": -29.489564301512047, "alt_km": 779.249938817914, "timestamp": "2025-12-07T07:31:36.692757+00:00", "meta": {"OBJECT_NAME": "COSMOS 2251 DEB", "OBJECT_ID": "1993-036WR", "EPOCH": "2025-12-06T17:50:17.888640", "MEAN_MOTION": 14.4894975, "ECCENTRICITY": 0.00814955, "INCLINATION": 74.0512, "RA_OF_ASC_NODE": 230.7653, "ARG_OF_PERICENTER": 268.5658, "MEAN_ANOMALY": 90.6165, "EPHEMERIS_TYPE": 0, "CLASSIFICATION_TYPE": "U", "NORAD_CAT_ID": 34620, "ELEMENT_SET_NO": 999, "REV_AT_EPOCH": 86740, "BSTAR": 0.003995827, "MEAN_MOTION_DOT": 0.00015797, "MEAN_MOTION_DDOT": 0}, "tle": {"line1": "1 34620U 93036WR  25340.74326260  .00015797  00000+0  39958-2 0  9994", "line2": "2 34620  74.0512 230.7653 0081495 268.5658  90.6165 14.48949750867402"}}, "geometry": {"type": "Point", "coordinates": [-29.489564301512047, 73.76788229814211]}}, {"type": "Feature", "properties": {"norad_id": 34622, "name": "COSMOS 2251 DEB", "group": "cosmos-2251-debris", "lat": -69.37806204207422, "lon": -173.75542900284398, "alt_km": 885.7248551773482, "timestamp": "2025-12-07T07:31:36.692767+00:00", "meta": {"OBJECT_NAME": "COSMOS 2251 DEB", "OBJECT_ID": "1993-036WT", "EPOCH": "2025-12-06T22:01:20.526816", "MEAN_MOTION": 14.22006336, "ECCENTRICITY": 0.01041451, "INCLINATION": 74.0418, "RA_OF_ASC_NODE": 317.4575, "ARG_OF_PERICENTER": 41.3807, "MEAN_ANOMALY": 349.562, "EPHEMERIS_TYPE": 0, "CLASSIFICATION_TYPE": "U", "NORAD_CAT_ID": 34622, "ELEMENT_SET_NO": 999, "REV_AT_EPOCH": 86377, "BSTAR": 0.0017964474, "MEAN_MOTION_DOT": 4.173e-05, "MEAN_MOTION_DDOT": 0}, "tle": {"line1": "1 34622U 93036WT  25340.91759869  .00004173  00000+0  17964-2 0  9999", "line2": "2 34622  74.0418 317.4575 0104145  41.3807 349.5620 14.22006336863770"}}, "geometry": {"type": "Point", "coordinates": [-173.75542900284398, -69.37806204207422]}}, {"type": "Feature", "properties": {"norad_id": 34626, "name": "COSMOS 2251 DEB", "group": "cosmos-2251-debris", "lat": -4.2983778899996175, "lon": 155.67522422273956, "alt_km": 666.7682267453429, "timestamp": "2025-12-07T07:31:36.692777+00:00", "meta": {"OBJECT_NAME": "COSMOS 2251 DEB", "OBJECT_ID": "1993-036WX", "EPOCH": "2025-12-06T18:26:38.941728", "MEAN_MOTION": 14.72086533, "ECCENTRICITY": 0.00262705, "INCLINATION": 74.0481, "RA_OF_ASC_NODE": 335.5025, "ARG_OF_PERICENTER": 65.5949, "MEAN_ANOMALY": 110.8564, "EPHEMERIS_TYPE": 0, "CLASSIFICATION_TYPE": "U", "NORAD_CAT_ID": 34626, "ELEMENT_SET_NO": 999, "REV_AT_EPOCH": 89056, "BSTAR": 0.0016445439, "MEAN_MOTION_DOT": 0.00010384, "MEAN_MOTION_DDOT": 0}, "tle": {"line1": "1 34626U 93036WX  25340.76850627  .00010384  00000+0  16445-2 0  9994", "line2": "2 34626  74.0481 335.5025 0026270  65.5949 110.8564 14.72086533890567"}}, "geometry": {"type": "Point", "coordinates": [155.67522422273956, -4.2983778899996175]}}]}